[{"OBJECT_NAME":"ICEYE-X31","OBJECT_ID":"2023-174AJ","EPOCH":"2026-03-09T23:06:20.433600","MEAN_MOTION":15.30950809,"ECCENTRICITY":0.00015021,"INCLINATION":97.3851,"RA_OF_ASC_NODE":144.9524,"ARG_OF_PERICENTER":332.6589,"MEAN_ANOMALY":27.4572,"EPHEMERIS_TYPE":0,"CLASSIFICATION_TYPE":"U","NORAD_CAT_ID":58288,"ELEMENT_SET_NO":999,"REV_AT_EPOCH":12955,"BSTAR":0.00066288467,"MEAN_MOTION_DOT":0.00019777,"MEAN_MOTION_DDOT":0},{"OBJECT_NAME":"STARLINK-33710","OBJECT_ID":"2025-069B","EPOCH":"2026-03-09T10:37:03.023904","MEAN_MOTION":15.30193173,"ECCENTRICITY":0.00011585,"INCLINATION":53.1581,"RA_OF_ASC_NODE":143.8621,"ARG_OF_PERICENTER":74.9233,"MEAN_ANOMALY":285.1896,"EPHEMERIS_TYPE":0,"CLASSIFICATION_TYPE":"U","NORAD_CAT_ID":63434,"ELEMENT_SET_NO":999,"REV_AT_EPOCH":5336,"BSTAR":0.00063432923,"MEAN_MOTION_DOT":0.00018471,"MEAN_MOTION_DDOT":0}]
